CCSDS_OMM_VERS = 2.0
CREATION_DATE  = 
ORIGINATOR     = 

OBJECT_NAME    = STARLINK-36566
OBJECT_ID      = 2026-014V
CENTER_NAME    = EARTH
REF_FRAME      = TEME
TIME_SYSTEM    = UTC
MEAN_ELEMENT_THEORY = SGP/SGP4

EPOCH          = 2026-02-12T12:00:01.999296
MEAN_MOTION    = 15.75218375
ECCENTRICITY   = .0001546
INCLINATION    = 97.2858
RA_OF_ASC_NODE = 287.1839
ARG_OF_PERICENTER = 90.3596
MEAN_ANOMALY   = 57.2455

EPHEMERIS_TYPE = 0
CLASSIFICATION_TYPE = U
NORAD_CAT_ID   = 67551
ELEMENT_SET_NO = 999
REV_AT_EPOCH   = 464
BSTAR          = -.48907E-3
MEAN_MOTION_DOT = -.72553E-3
MEAN_MOTION_DDOT = 0

CCSDS_OMM_VERS = 2.0
CREATION_DATE  = 
ORIGINATOR     = 

OBJECT_NAME    = STARLINK-36567
OBJECT_ID      = 2026-014W
CENTER_NAME    = EARTH
REF_FRAME      = TEME
TIME_SYSTEM    = UTC
MEAN_ELEMENT_THEORY = SGP/SGP4

EPOCH          = 2026-02-12T11:34:45.317280
MEAN_MOTION    = 15.75235954
ECCENTRICITY   = .0001226
INCLINATION    = 97.2864
RA_OF_ASC_NODE = 287.1405
ARG_OF_PERICENTER = 107.6329
MEAN_ANOMALY   = 252.5070

EPHEMERIS_TYPE = 0
CLASSIFICATION_TYPE = U
NORAD_CAT_ID   = 67552
ELEMENT_SET_NO = 999
REV_AT_EPOCH   = 459
BSTAR          = .12416E-2
MEAN_MOTION_DOT = .189601E-2
MEAN_MOTION_DDOT = 0

CCSDS_OMM_VERS = 2.0
CREATION_DATE  = 
ORIGINATOR     = 

OBJECT_NAME    = STARLINK-36569
OBJECT_ID      = 2026-014X
CENTER_NAME    = EARTH
REF_FRAME      = TEME
TIME_SYSTEM    = UTC
MEAN_ELEMENT_THEORY = SGP/SGP4

EPOCH          = 2026-02-12T11:00:21.088224
MEAN_MOTION    = 15.80792090
ECCENTRICITY   = .000153
INCLINATION    = 97.2868
RA_OF_ASC_NODE = 287.1696
ARG_OF_PERICENTER = 68.5203
MEAN_ANOMALY   = 291.6228

EPHEMERIS_TYPE = 0
CLASSIFICATION_TYPE = U
NORAD_CAT_ID   = 67553
ELEMENT_SET_NO = 999
REV_AT_EPOCH   = 459
BSTAR          = .55483E-3
MEAN_MOTION_DOT = .107334E-2
MEAN_MOTION_DDOT = 0

CCSDS_OMM_VERS = 2.0
CREATION_DATE  = 
ORIGINATOR     = 

OBJECT_NAME    = STARLINK-36395
OBJECT_ID      = 2026-014Y
CENTER_NAME    = EARTH
REF_FRAME      = TEME
TIME_SYSTEM    = UTC
MEAN_ELEMENT_THEORY = SGP/SGP4

EPOCH          = 2026-02-12T11:26:37.532256
MEAN_MOTION    = 15.75262827
ECCENTRICITY   = .0001534
INCLINATION    = 97.2862
RA_OF_ASC_NODE = 287.1489
ARG_OF_PERICENTER = 87.9329
MEAN_ANOMALY   = 272.2112

EPHEMERIS_TYPE = 0
CLASSIFICATION_TYPE = U
NORAD_CAT_ID   = 67554
ELEMENT_SET_NO = 999
REV_AT_EPOCH   = 459
BSTAR          = .16019E-2
MEAN_MOTION_DOT = .246611E-2
MEAN_MOTION_DDOT = 0

CCSDS_OMM_VERS = 2.0
CREATION_DATE  = 
ORIGINATOR     = 

OBJECT_NAME    = STARLINK-36559
OBJECT_ID      = 2026-014Z
CENTER_NAME    = EARTH
REF_FRAME      = TEME
TIME_SYSTEM    = UTC
MEAN_ELEMENT_THEORY = SGP/SGP4

EPOCH          = 2026-02-12T11:28:39.553248
MEAN_MOTION    = 15.75251995
ECCENTRICITY   = .0001576
INCLINATION    = 97.2863
RA_OF_ASC_NODE = 287.1469
ARG_OF_PERICENTER = 89.6521
MEAN_ANOMALY   = 270.4925

EPHEMERIS_TYPE = 0
CLASSIFICATION_TYPE = U
NORAD_CAT_ID   = 67555
ELEMENT_SET_NO = 999
REV_AT_EPOCH   = 459
BSTAR          = .15308E-2
MEAN_MOTION_DOT = .235232E-2
MEAN_MOTION_DDOT = 0

CCSDS_OMM_VERS = 2.0
CREATION_DATE  = 
ORIGINATOR     = 

OBJECT_NAME    = MR-1
OBJECT_ID      = 2026-015A
CENTER_NAME    = EARTH
REF_FRAME      = TEME
TIME_SYSTEM    = UTC
MEAN_ELEMENT_THEORY = SGP/SGP4

EPOCH          = 2026-02-12T04:37:29.218656
MEAN_MOTION    = 13.52685950
ECCENTRICITY   = .0005133
INCLINATION    = 88.9974
RA_OF_ASC_NODE = 281.2545
ARG_OF_PERICENTER = 84.1709
MEAN_ANOMALY   = 276.0029

EPHEMERIS_TYPE = 0
CLASSIFICATION_TYPE = U
NORAD_CAT_ID   = 67556
ELEMENT_SET_NO = 999
REV_AT_EPOCH   = 281
BSTAR          = .56892E-5
MEAN_MOTION_DOT = .16E-6
MEAN_MOTION_DDOT = 0

CCSDS_OMM_VERS = 2.0
CREATION_DATE  = 
ORIGINATOR     = 

OBJECT_NAME    = MR-2
OBJECT_ID      = 2026-015B
CENTER_NAME    = EARTH
REF_FRAME      = TEME
TIME_SYSTEM    = UTC
MEAN_ELEMENT_THEORY = SGP/SGP4

EPOCH          = 2026-02-12T02:51:30.630528
MEAN_MOTION    = 13.52661070
ECCENTRICITY   = .00051883
INCLINATION    = 88.9974
RA_OF_ASC_NODE = 281.2622
ARG_OF_PERICENTER = 83.3597
MEAN_ANOMALY   = 276.8146

EPHEMERIS_TYPE = 0
CLASSIFICATION_TYPE = U
NORAD_CAT_ID   = 67557
ELEMENT_SET_NO = 999
REV_AT_EPOCH   = 280
BSTAR          = .33308181E-4
MEAN_MOTION_DOT = .34E-6
MEAN_MOTION_DDOT = 0

CCSDS_OMM_VERS = 2.0
CREATION_DATE  = 
ORIGINATOR     = 

OBJECT_NAME    = ELECTRON R/B
OBJECT_ID      = 2026-015C
CENTER_NAME    = EARTH
REF_FRAME      = TEME
TIME_SYSTEM    = UTC
MEAN_ELEMENT_THEORY = SGP/SGP4

EPOCH          = 2026-02-12T14:16:01.731936
MEAN_MOTION    = 15.37831465
ECCENTRICITY   = .042134
INCLINATION    = 88.9901
RA_OF_ASC_NODE = 280.5892
ARG_OF_PERICENTER = 192.0305
MEAN_ANOMALY   = 167.0648

EPHEMERIS_TYPE = 0
CLASSIFICATION_TYPE = U
NORAD_CAT_ID   = 67558
ELEMENT_SET_NO = 999
REV_AT_EPOCH   = 318
BSTAR          = .1592E-2
MEAN_MOTION_DOT = .2572268E-1
MEAN_MOTION_DDOT = -.10715E-5

CCSDS_OMM_VERS = 2.0
CREATION_DATE  = 
ORIGINATOR     = 

OBJECT_NAME    = ELECTRON KICK STAGE R/B
OBJECT_ID      = 2026-015D
CENTER_NAME    = EARTH
REF_FRAME      = TEME
TIME_SYSTEM    = UTC
MEAN_ELEMENT_THEORY = SGP/SGP4

EPOCH          = 2026-02-12T03:47:15.215136
MEAN_MOTION    = 14.67902343
ECCENTRICITY   = .05296695
INCLINATION    = 89.0512
RA_OF_ASC_NODE = 280.9222
ARG_OF_PERICENTER = 262.8475
MEAN_ANOMALY   = 91.2261

EPHEMERIS_TYPE = 0
CLASSIFICATION_TYPE = U
NORAD_CAT_ID   = 67559
ELEMENT_SET_NO = 999
REV_AT_EPOCH   = 304
BSTAR          = .10792864E-2
MEAN_MOTION_DOT = .63868E-3
MEAN_MOTION_DDOT = .19993E-6

CCSDS_OMM_VERS = 2.0
CREATION_DATE  = 
ORIGINATOR     = 

OBJECT_NAME    = STARLINK-36426
OBJECT_ID      = 2026-014AA
CENTER_NAME    = EARTH
REF_FRAME      = TEME
TIME_SYSTEM    = UTC
MEAN_ELEMENT_THEORY = SGP/SGP4

EPOCH          = 2026-02-12T10:58:45.128064
MEAN_MOTION    = 15.80885874
ECCENTRICITY   = .0001394
INCLINATION    = 97.2854
RA_OF_ASC_NODE = 287.1761
ARG_OF_PERICENTER = 75.3126
MEAN_ANOMALY   = 284.8297

EPHEMERIS_TYPE = 0
CLASSIFICATION_TYPE = U
NORAD_CAT_ID   = 67560
ELEMENT_SET_NO = 999
REV_AT_EPOCH   = 459
BSTAR          = .10723E-2
MEAN_MOTION_DOT = .210976E-2
MEAN_MOTION_DDOT = 0

CCSDS_OMM_VERS = 2.0
CREATION_DATE  = 
ORIGINATOR     = 

OBJECT_NAME    = STARLINK-36621
OBJECT_ID      = 2026-016A
CENTER_NAME    = EARTH
REF_FRAME      = TEME
TIME_SYSTEM    = UTC
MEAN_ELEMENT_THEORY = SGP/SGP4

EPOCH          = 2026-02-12T12:00:01.999296
MEAN_MOTION    = 15.75093134
ECCENTRICITY   = .0001221
INCLINATION    = 97.2839
RA_OF_ASC_NODE = 102.6629
ARG_OF_PERICENTER = 106.4297
MEAN_ANOMALY   = 218.5528

EPHEMERIS_TYPE = 0
CLASSIFICATION_TYPE = U
NORAD_CAT_ID   = 67561
ELEMENT_SET_NO = 999
REV_AT_EPOCH   = 400
BSTAR          = .10455E-2
MEAN_MOTION_DOT = .158071E-2
MEAN_MOTION_DDOT = 0

CCSDS_OMM_VERS = 2.0
CREATION_DATE  = 
ORIGINATOR     = 

OBJECT_NAME    = STARLINK-36398
OBJECT_ID      = 2026-016B
CENTER_NAME    = EARTH
REF_FRAME      = TEME
TIME_SYSTEM    = UTC
MEAN_ELEMENT_THEORY = SGP/SGP4

EPOCH          = 2026-02-12T10:48:09.757152
MEAN_MOTION    = 15.75225988
ECCENTRICITY   = .0000945
INCLINATION    = 97.2837
RA_OF_ASC_NODE = 102.5908
ARG_OF_PERICENTER = 74.3169
MEAN_ANOMALY   = 285.8200

EPHEMERIS_TYPE = 0
CLASSIFICATION_TYPE = U
NORAD_CAT_ID   = 67562
ELEMENT_SET_NO = 999
REV_AT_EPOCH   = 282
BSTAR          = .11978E-2
MEAN_MOTION_DOT = .182681E-2
MEAN_MOTION_DDOT = 0

