STARLINK-36566          
1 67551U 26014V   26043.50002314 -.00072553  00000+0 -48907-3 0  9991
2 67551  97.2858 287.1839 0001546  90.3596  57.2455 15.75218375  4647
STARLINK-36567          
1 67552U 26014W   26043.48246895  .00189601  00000+0  12416-2 0  9999
2 67552  97.2864 287.1405 0001226 107.6329 252.5070 15.75235954  4594
STARLINK-36569          
1 67553U 26014X   26043.45857741  .00107334  00000+0  55483-3 0  9990
2 67553  97.2868 287.1696 0001530  68.5203 291.6228 15.80792090  4599
STARLINK-36395          
1 67554U 26014Y   26043.47682329  .00246611  00000+0  16019-2 0  9994
2 67554  97.2862 287.1489 0001534  87.9329 272.2112 15.75262827  4593
STARLINK-36559          
1 67555U 26014Z   26043.47823557  .00235232  00000+0  15308-2 0  9992
2 67555  97.2863 287.1469 0001576  89.6521 270.4925 15.75251995  4598
MR-1                    
1 67556U 26015A   26043.19269929  .00000016  00000+0  56892-5 0  9996
2 67556  88.9974 281.2545 0005133  84.1709 276.0029 13.52685950  2815
MR-2                    
1 67557U 26015B   26043.11910452  .00000034  00000+0  33308-4 0  9999
2 67557  88.9974 281.2622 0005188  83.3597 276.8146 13.52661070  2802
ELECTRON R/B            
1 67558U 26015C   26043.59446449  .02572268 -10715-5  15920-2 0  9996
2 67558  88.9901 280.5892 0421340 192.0305 167.0648 15.37831465  3183
ELECTRON KICK STAGE R/B 
1 67559U 26015D   26043.15781499  .00063868  19993-6  10793-2 0  9995
2 67559  89.0512 280.9222 0529669 262.8475  91.2261 14.67902343  3042
STARLINK-36426          
1 67560U 26014AA  26043.45746676  .00210976  00000+0  10723-2 0  9996
2 67560  97.2854 287.1761 0001394  75.3126 284.8297 15.80885874  4596
STARLINK-36621          
1 67561U 26016A   26043.50002314  .00158071  00000+0  10455-2 0  9998
2 67561  97.2839 102.6629 0001221 106.4297 218.5528 15.75093134  4009
STARLINK-36398          
1 67562U 26016B   26043.45011293  .00182681  00000+0  11978-2 0  9994
2 67562  97.2837 102.5908 0000945  74.3169 285.8200 15.75225988  2826
